[{"OBJECT_NAME":"STARLINK-35300","OBJECT_ID":"2025-218K","EPOCH":"2026-03-09T14:36:36.673056","MEAN_MOTION":15.05644729,"ECCENTRICITY":0.0003216,"INCLINATION":97.6001,"RA_OF_ASC_NODE":292.813,"ARG_OF_PERICENTER":82.1901,"MEAN_ANOMALY":277.969,"EPHEMERIS_TYPE":0,"CLASSIFICATION_TYPE":"U","NORAD_CAT_ID":65800,"ELEMENT_SET_NO":999,"REV_AT_EPOCH":2495,"BSTAR":0.00014881,"MEAN_MOTION_DOT":2.087e-5,"MEAN_MOTION_DDOT":0},{"OBJECT_NAME":"PEGASUS DEB","OBJECT_ID":"1994-029EN","EPOCH":"2026-03-09T15:28:18.113376","MEAN_MOTION":15.06103636,"ECCENTRICITY":0.0063203,"INCLINATION":81.992,"RA_OF_ASC_NODE":119.5258,"ARG_OF_PERICENTER":162.6478,"MEAN_ANOMALY":325.8514,"EPHEMERIS_TYPE":0,"CLASSIFICATION_TYPE":"U","NORAD_CAT_ID":24091,"ELEMENT_SET_NO":999,"REV_AT_EPOCH":61530,"BSTAR":0.00036871,"MEAN_MOTION_DOT":5.666e-5,"MEAN_MOTION_DDOT":0}]
